<?xml version="1.0" ?><gpx xmlns="http://www.topografix.com/GPX/1/1" creator="GaiaGPS" version="1.1" xmlns:xsi="http://www.w3.org/2001/XMLSchema-instance" xsi:schemaLocation="http://www.topografix.com/GPX/1/1 http://www.topografix.com/GPX/1/1/gpx.xsd"><trk><name>Mount Marcy via Van Hoevenberg Trail</name><type>knownroute</type><trkseg><trkpt lat="44.157855" lon="-73.950341" ele="732.0"/><trkpt lat="44.157825" lon="-73.95028" ele="733.0"/><trkpt lat="44.157699" lon="-73.949997" ele="734.0"/><trkpt lat="44.157676" lon="-73.949929" ele="734.0"/><trkpt lat="44.157611" lon="-73.94973" ele="735.0"/><trkpt lat="44.157604" lon="-73.949669" ele="735.0"/><trkpt lat="44.157588" lon="-73.94957" ele="736.0"/><trkpt lat="44.157588" lon="-73.948746" ele="741.0"/><trkpt lat="44.157501" lon="-73.948441" ele="744.0"/><trkpt lat="44.157444" lon="-73.948006" ele="747.0"/><trkpt lat="44.157291" lon="-73.947732" ele="751.0"/><trkpt lat="44.157203" lon="-73.947495" ele="752.0"/><trkpt lat="44.157131" lon="-73.947358" ele="754.0"/><trkpt lat="44.156906" lon="-73.947022" ele="758.0"/><trkpt lat="44.156494" lon="-73.946618" ele="763.0"/><trkpt lat="44.15636" lon="-73.946465" ele="765.0"/><trkpt lat="44.156318" lon="-73.946366" ele="766.0"/><trkpt lat="44.15625" lon="-73.946282" ele="767.0"/><trkpt lat="44.156124" lon="-73.946114" ele="769.0"/><trkpt lat="44.155757" lon="-73.945702" ele="775.0"/><trkpt lat="44.155422" lon="-73.945328" ele="778.0"/><trkpt lat="44.155029" lon="-73.945107" ele="784.0"/><trkpt lat="44.154853" lon="-73.944855" ele="788.0"/><trkpt lat="44.154705" lon="-73.944527" ele="790.0"/><trkpt lat="44.154079" lon="-73.943497" ele="803.0"/><trkpt lat="44.15369" lon="-73.942917" ele="808.0"/><trkpt lat="44.153423" lon="-73.942475" ele="812.0"/><trkpt lat="44.153316" lon="-73.942208" ele="815.0"/><trkpt lat="44.153301" lon="-73.941842" ele="819.0"/><trkpt lat="44.153003" lon="-73.940827" ele="827.0"/><trkpt lat="44.15295" lon="-73.940415" ele="832.0"/><trkpt lat="44.152915" lon="-73.940262" ele="833.0"/><trkpt lat="44.152786" lon="-73.939827" ele="835.0"/><trkpt lat="44.152519" lon="-73.939065" ele="842.0"/><trkpt lat="44.152179" lon="-73.937935" ele="852.0"/><trkpt lat="44.15203" lon="-73.937043" ele="861.0"/><trkpt lat="44.151531" lon="-73.93538" ele="873.0"/><trkpt lat="44.151462" lon="-73.935265" ele="874.0"/><trkpt lat="44.151256" lon="-73.934792" ele="879.0"/><trkpt lat="44.150634" lon="-73.93406" ele="886.0"/><trkpt lat="44.150344" lon="-73.93319" ele="895.0"/><trkpt lat="44.150188" lon="-73.932457" ele="897.0"/><trkpt lat="44.149967" lon="-73.931618" ele="907.0"/><trkpt lat="44.149894" lon="-73.931374" ele="911.0"/><trkpt lat="44.149803" lon="-73.931382" ele="911.0"/><trkpt lat="44.149776" lon="-73.931382" ele="911.0"/><trkpt lat="44.149589" lon="-73.931229" ele="915.0"/><trkpt lat="44.149093" lon="-73.930443" ele="926.0"/><trkpt lat="44.14886" lon="-73.930192" ele="934.0"/><trkpt lat="44.148658" lon="-73.929963" ele="939.0"/><trkpt lat="44.148525" lon="-73.930054" ele="942.0"/><trkpt lat="44.148338" lon="-73.93026" ele="949.0"/><trkpt lat="44.148189" lon="-73.930481" ele="955.0"/><trkpt lat="44.147941" lon="-73.930985" ele="960.0"/><trkpt lat="44.147865" lon="-73.931283" ele="962.0"/><trkpt lat="44.147666" lon="-73.931366" ele="969.0"/><trkpt lat="44.147491" lon="-73.931557" ele="975.0"/><trkpt lat="44.147178" lon="-73.931321" ele="984.0"/><trkpt lat="44.146873" lon="-73.931283" ele="990.0"/><trkpt lat="44.146659" lon="-73.931023" ele="996.0"/><trkpt lat="44.146293" lon="-73.930871" ele="1006.0"/><trkpt lat="44.146068" lon="-73.930611" ele="1008.0"/><trkpt lat="44.145439" lon="-73.930474" ele="1021.0"/><trkpt lat="44.145195" lon="-73.930497" ele="1029.0"/><trkpt lat="44.144939" lon="-73.930428" ele="1037.0"/><trkpt lat="44.144813" lon="-73.930443" ele="1039.0"/><trkpt lat="44.144645" lon="-73.930558" ele="1044.0"/><trkpt lat="44.144653" lon="-73.930733" ele="1048.0"/><trkpt lat="44.144828" lon="-73.931031" ele="1049.0"/><trkpt lat="44.144786" lon="-73.931191" ele="1054.0"/><trkpt lat="44.144435" lon="-73.931214" ele="1066.0"/><trkpt lat="44.144088" lon="-73.931107" ele="1067.0"/><trkpt lat="44.143512" lon="-73.931084" ele="1069.0"/><trkpt lat="44.143218" lon="-73.93097" ele="1072.0"/><trkpt lat="44.143112" lon="-73.930787" ele="1075.0"/><trkpt lat="44.143035" lon="-73.930527" ele="1076.0"/><trkpt lat="44.14265" lon="-73.929734" ele="1084.0"/><trkpt lat="44.142425" lon="-73.929169" ele="1091.0"/><trkpt lat="44.141929" lon="-73.928635" ele="1102.0"/><trkpt lat="44.141807" lon="-73.928505" ele="1103.0"/><trkpt lat="44.141632" lon="-73.928551" ele="1105.0"/><trkpt lat="44.141479" lon="-73.928566" ele="1106.0"/><trkpt lat="44.141315" lon="-73.928544" ele="1108.0"/><trkpt lat="44.141105" lon="-73.928475" ele="1108.0"/><trkpt lat="44.140838" lon="-73.928383" ele="1108.0"/><trkpt lat="44.140693" lon="-73.92833" ele="1108.0"/><trkpt lat="44.140567" lon="-73.928292" ele="1108.0"/><trkpt lat="44.140502" lon="-73.928284" ele="1109.0"/><trkpt lat="44.140392" lon="-73.928299" ele="1109.0"/><trkpt lat="44.140266" lon="-73.928261" ele="1110.0"/><trkpt lat="44.140247" lon="-73.928246" ele="1110.0"/><trkpt lat="44.14014" lon="-73.928208" ele="1111.0"/><trkpt lat="44.139965" lon="-73.927887" ele="1115.0"/><trkpt lat="44.139877" lon="-73.927796" ele="1116.0"/><trkpt lat="44.139747" lon="-73.927849" ele="1118.0"/><trkpt lat="44.139522" lon="-73.928002" ele="1122.0"/><trkpt lat="44.139125" lon="-73.927712" ele="1126.0"/><trkpt lat="44.138339" lon="-73.927102" ele="1134.0"/><trkpt lat="44.13768" lon="-73.926606" ele="1137.0"/><trkpt lat="44.137317" lon="-73.926423" ele="1137.0"/><trkpt lat="44.137126" lon="-73.926392" ele="1140.0"/><trkpt lat="44.136795" lon="-73.926476" ele="1146.0"/><trkpt lat="44.136398" lon="-73.92643" ele="1153.0"/><trkpt lat="44.135761" lon="-73.926384" ele="1165.0"/><trkpt lat="44.135349" lon="-73.926285" ele="1173.0"/><trkpt lat="44.13491" lon="-73.926133" ele="1182.0"/><trkpt lat="44.134323" lon="-73.926095" ele="1187.0"/><trkpt lat="44.134071" lon="-73.926201" ele="1188.0"/><trkpt lat="44.133609" lon="-73.926468" ele="1190.0"/><trkpt lat="44.133022" lon="-73.926461" ele="1187.0"/><trkpt lat="44.132587" lon="-73.926171" ele="1183.0"/><trkpt lat="44.13248" lon="-73.926148" ele="1182.0"/><trkpt lat="44.132369" lon="-73.926217" ele="1182.0"/><trkpt lat="44.132114" lon="-73.92643" ele="1184.0"/><trkpt lat="44.131637" lon="-73.926682" ele="1188.0"/><trkpt lat="44.131301" lon="-73.926812" ele="1189.0"/><trkpt lat="44.131111" lon="-73.926972" ele="1188.0"/><trkpt lat="44.130733" lon="-73.927201" ele="1194.0"/><trkpt lat="44.130397" lon="-73.927483" ele="1201.0"/><trkpt lat="44.130168" lon="-73.927605" ele="1206.0"/><trkpt lat="44.129859" lon="-73.927887" ele="1216.0"/><trkpt lat="44.129737" lon="-73.927956" ele="1220.0"/><trkpt lat="44.129627" lon="-73.927971" ele="1226.0"/><trkpt lat="44.129558" lon="-73.927948" ele="1229.0"/><trkpt lat="44.129371" lon="-73.927796" ele="1237.0"/><trkpt lat="44.129116" lon="-73.927743" ele="1246.0"/><trkpt lat="44.12889" lon="-73.927529" ele="1254.0"/><trkpt lat="44.128646" lon="-73.927353" ele="1261.0"/><trkpt lat="44.128253" lon="-73.926949" ele="1266.0"/><trkpt lat="44.127838" lon="-73.926705" ele="1276.0"/><trkpt lat="44.127258" lon="-73.926262" ele="1282.0"/><trkpt lat="44.126667" lon="-73.925927" ele="1286.0"/><trkpt lat="44.126438" lon="-73.925698" ele="1285.0"/><trkpt lat="44.126312" lon="-73.925629" ele="1285.0"/><trkpt lat="44.126209" lon="-73.925614" ele="1287.0"/><trkpt lat="44.126029" lon="-73.925614" ele="1290.0"/><trkpt lat="44.125846" lon="-73.925667" ele="1293.0"/><trkpt lat="44.12561" lon="-73.925614" ele="1297.0"/><trkpt lat="44.125385" lon="-73.925698" ele="1304.0"/><trkpt lat="44.124904" lon="-73.925423" ele="1310.0"/><trkpt lat="44.124763" lon="-73.925271" ele="1312.0"/><trkpt lat="44.124679" lon="-73.924813" ele="1313.0"/><trkpt lat="44.124565" lon="-73.924653" ele="1313.0"/><trkpt lat="44.124549" lon="-73.924325" ele="1312.0"/><trkpt lat="44.124423" lon="-73.92405" ele="1313.0"/><trkpt lat="44.124149" lon="-73.92392" ele="1320.0"/><trkpt lat="44.123992" lon="-73.9236" ele="1326.0"/><trkpt lat="44.123977" lon="-73.923211" ele="1329.0"/><trkpt lat="44.123882" lon="-73.922951" ele="1332.0"/><trkpt lat="44.123409" lon="-73.922234" ele="1342.0"/><trkpt lat="44.123298" lon="-73.921654" ele="1348.0"/><trkpt lat="44.123168" lon="-73.92125" ele="1352.0"/><trkpt lat="44.123191" lon="-73.920647" ele="1355.0"/><trkpt lat="44.123252" lon="-73.92035" ele="1356.0"/><trkpt lat="44.12313" lon="-73.919808" ele="1358.0"/><trkpt lat="44.122688" lon="-73.919175" ele="1358.0"/><trkpt lat="44.122573" lon="-73.918992" ele="1356.0"/><trkpt lat="44.12252" lon="-73.91877" ele="1355.0"/><trkpt lat="44.122585" lon="-73.918335" ele="1356.0"/><trkpt lat="44.12252" lon="-73.918229" ele="1356.0"/><trkpt lat="44.122501" lon="-73.918198" ele="1355.0"/><trkpt lat="44.122325" lon="-73.918129" ele="1353.0"/><trkpt lat="44.122123" lon="-73.917923" ele="1350.0"/><trkpt lat="44.121601" lon="-73.917267" ele="1353.0"/><trkpt lat="44.121307" lon="-73.916764" ele="1356.0"/><trkpt lat="44.120838" lon="-73.916337" ele="1364.0"/><trkpt lat="44.12059" lon="-73.916192" ele="1368.0"/><trkpt lat="44.120326" lon="-73.91594" ele="1374.0"/><trkpt lat="44.120006" lon="-73.915764" ele="1380.0"/><trkpt lat="44.119808" lon="-73.915719" ele="1381.0"/><trkpt lat="44.119476" lon="-73.915543" ele="1383.0"/><trkpt lat="44.119354" lon="-73.915368" ele="1386.0"/><trkpt lat="44.119167" lon="-73.915207" ele="1392.0"/><trkpt lat="44.119037" lon="-73.915139" ele="1394.0"/><trkpt lat="44.118846" lon="-73.915085" ele="1396.0"/><trkpt lat="44.118675" lon="-73.914994" ele="1399.0"/><trkpt lat="44.118526" lon="-73.914864" ele="1402.0"/><trkpt lat="44.118083" lon="-73.914368" ele="1408.0"/><trkpt lat="44.117816" lon="-73.914223" ele="1410.0"/><trkpt lat="44.11761" lon="-73.914048" ele="1413.0"/><trkpt lat="44.117527" lon="-73.914017" ele="1414.0"/><trkpt lat="44.117465" lon="-73.914017" ele="1415.0"/><trkpt lat="44.117359" lon="-73.914063" ele="1416.0"/><trkpt lat="44.117042" lon="-73.91449" ele="1426.0"/><trkpt lat="44.116783" lon="-73.914498" ele="1430.0"/><trkpt lat="44.11658" lon="-73.914574" ele="1435.0"/><trkpt lat="44.116447" lon="-73.914757" ele="1441.0"/><trkpt lat="44.116214" lon="-73.914887" ele="1451.0"/><trkpt lat="44.1161" lon="-73.915047" ele="1459.0"/><trkpt lat="44.115955" lon="-73.915116" ele="1464.0"/><trkpt lat="44.115756" lon="-73.915452" ele="1473.0"/><trkpt lat="44.115684" lon="-73.915535" ele="1476.0"/><trkpt lat="44.115585" lon="-73.915543" ele="1478.0"/><trkpt lat="44.115489" lon="-73.915749" ele="1480.0"/><trkpt lat="44.115451" lon="-73.91594" ele="1481.0"/><trkpt lat="44.115455" lon="-73.91639" ele="1487.0"/><trkpt lat="44.115333" lon="-73.916756" ele="1492.0"/><trkpt lat="44.115341" lon="-73.917061" ele="1494.0"/><trkpt lat="44.115299" lon="-73.917176" ele="1495.0"/><trkpt lat="44.115177" lon="-73.917305" ele="1497.0"/><trkpt lat="44.114936" lon="-73.917435" ele="1501.0"/><trkpt lat="44.114887" lon="-73.917504" ele="1502.0"/><trkpt lat="44.114795" lon="-73.917649" ele="1502.0"/><trkpt lat="44.114795" lon="-73.918023" ele="1505.0"/><trkpt lat="44.114738" lon="-73.91816" ele="1506.0"/><trkpt lat="44.114776" lon="-73.918534" ele="1510.0"/><trkpt lat="44.114795" lon="-73.918679" ele="1512.0"/><trkpt lat="44.114841" lon="-73.918831" ele="1515.0"/><trkpt lat="44.114894" lon="-73.918915" ele="1516.0"/><trkpt lat="44.11491" lon="-73.91903" ele="1517.0"/><trkpt lat="44.114978" lon="-73.919091" ele="1517.0"/><trkpt lat="44.115024" lon="-73.919175" ele="1517.0"/><trkpt lat="44.115039" lon="-73.919274" ele="1518.0"/><trkpt lat="44.115051" lon="-73.91948" ele="1519.0"/><trkpt lat="44.115177" lon="-73.920006" ele="1517.0"/><trkpt lat="44.115104" lon="-73.920105" ele="1520.0"/><trkpt lat="44.115039" lon="-73.920105" ele="1523.0"/><trkpt lat="44.114994" lon="-73.920197" ele="1525.0"/><trkpt lat="44.114986" lon="-73.920311" ele="1524.0"/><trkpt lat="44.114833" lon="-73.920411" ele="1531.0"/><trkpt lat="44.114746" lon="-73.920342" ele="1535.0"/><trkpt lat="44.114704" lon="-73.920388" ele="1536.0"/><trkpt lat="44.114643" lon="-73.920571" ele="1538.0"/><trkpt lat="44.114604" lon="-73.920662" ele="1539.0"/><trkpt lat="44.114528" lon="-73.920739" ele="1543.0"/><trkpt lat="44.114513" lon="-73.920762" ele="1543.0"/><trkpt lat="44.114471" lon="-73.920754" ele="1545.0"/><trkpt lat="44.114459" lon="-73.920823" ele="1546.0"/><trkpt lat="44.114383" lon="-73.921013" ele="1550.0"/><trkpt lat="44.11436" lon="-73.921052" ele="1551.0"/><trkpt lat="44.11433" lon="-73.921021" ele="1552.0"/><trkpt lat="44.114299" lon="-73.921036" ele="1553.0"/><trkpt lat="44.114223" lon="-73.921143" ele="1557.0"/><trkpt lat="44.114112" lon="-73.921128" ele="1560.0"/><trkpt lat="44.114009" lon="-73.921235" ele="1563.0"/><trkpt lat="44.113918" lon="-73.921433" ele="1570.0"/><trkpt lat="44.1138" lon="-73.921486" ele="1572.0"/><trkpt lat="44.113681" lon="-73.921547" ele="1575.0"/><trkpt lat="44.113578" lon="-73.921639" ele="1579.0"/><trkpt lat="44.113426" lon="-73.921891" ele="1588.0"/><trkpt lat="44.113311" lon="-73.922135" ele="1597.0"/><trkpt lat="44.113246" lon="-73.922272" ele="1601.0"/><trkpt lat="44.113201" lon="-73.922509" ele="1605.0"/><trkpt lat="44.113128" lon="-73.922738" ele="1607.0"/><trkpt lat="44.113086" lon="-73.922944" ele="1608.0"/><trkpt lat="44.113037" lon="-73.923058" ele="1608.0"/><trkpt lat="44.112957" lon="-73.923226" ele="1608.0"/><trkpt lat="44.112907" lon="-73.923325" ele="1608.0"/></trkseg></trk></gpx>